STARLINK-35770          
1 66977U 25288U   25356.16668980 -.00002059  00000+0 -10301-4 0  9991
2 66977  43.0007 109.4188 0001386 264.8013 229.8586 15.75030909  3343
STARLINK-35787          
1 66978U 25288V   25356.16668980  .00000792  00000+0  82654-5 0  9993
2 66978  43.0007 109.4035 0001733 270.9968 229.3975 15.75036613  3343
STARLINK-36107          
1 66979U 25288W   25356.16668980 -.00035075  00000+0 -22608-3 0  9999
2 66979  43.0007 109.3991 0001672 260.6653 241.6590 15.75048047  3347
STARLINK-36086          
1 66980U 25288X   25356.16668980 -.00057488  00000+0 -37334-3 0  9995
2 66980  43.0007 109.3940 0001667 258.8355 245.4031 15.75059434  3349
STARLINK-36142          
1 66981U 25288Y   25356.16668980 -.00015019  00000+0 -94842-4 0  9998
2 66981  43.0007 109.3893 0001974 267.6265 238.5369 15.75034660  3347
STARLINK-36113          
1 66982U 25288Z   25356.16668980 -.00057592  00000+0 -37402-3 0  9999
2 66982  43.0007 109.3839 0001671 264.0952 243.9788 15.75059590  3340
STARLINK-36145          
1 66983U 25288AA  25356.16668980 -.00033132  00000+0 -21341-3 0  9999
2 66983  43.0008 109.3746 0001434 266.0246 245.8945 15.75040751  3349
STARLINK-35591          
1 66984U 25288AB  25356.16668980 -.00022633  00000+0 -14454-3 0  9991
2 66984  43.0009 109.3788 0001086 261.0466 248.9276 15.75053649  3340
STARLINK-36103          
1 66985U 25288AC  25356.16668980 -.00053309  00000+0 -34573-3 0  9990
2 66985  43.0007 109.3696 0001898 266.9067 246.9128 15.75063347  3349
STARLINK-36135          
1 66986U 25288AD  25356.16668980 -.00029411  00000+0 -18903-3 0  9997
2 66986  43.0007 109.3639 0001785 267.4563 248.3026 15.75036132  3344
STARLINK-36147          
1 66987U 25288AE  25356.16668980 -.00001466  00000+0 -64413-5 0  9997
2 66987  43.0008 109.3598 0001538 264.2521 253.4269 15.75020810  3347
YAOGAN-47               
1 66988U 25289A   25354.09842060  .00002520  00000+0  10946-3 0  9992
2 66988  97.5265  59.2376 0000646  91.4531 268.6780 15.23243112  1668
