CCSDS_OMM_VERS = 2.0
CREATION_DATE  = 
ORIGINATOR     = 

OBJECT_NAME    = STARLINK-35770
OBJECT_ID      = 2025-288U
CENTER_NAME    = EARTH
REF_FRAME      = TEME
TIME_SYSTEM    = UTC
MEAN_ELEMENT_THEORY = SGP/SGP4

EPOCH          = 2025-12-22T04:00:01.998720
MEAN_MOTION    = 15.75030909
ECCENTRICITY   = .0001386
INCLINATION    = 43.0007
RA_OF_ASC_NODE = 109.4188
ARG_OF_PERICENTER = 264.8013
MEAN_ANOMALY   = 229.8586

EPHEMERIS_TYPE = 0
CLASSIFICATION_TYPE = U
NORAD_CAT_ID   = 66977
ELEMENT_SET_NO = 999
REV_AT_EPOCH   = 334
BSTAR          = -.10301E-4
MEAN_MOTION_DOT = -.2059E-4
MEAN_MOTION_DDOT = 0

CCSDS_OMM_VERS = 2.0
CREATION_DATE  = 
ORIGINATOR     = 

OBJECT_NAME    = STARLINK-35787
OBJECT_ID      = 2025-288V
CENTER_NAME    = EARTH
REF_FRAME      = TEME
TIME_SYSTEM    = UTC
MEAN_ELEMENT_THEORY = SGP/SGP4

EPOCH          = 2025-12-22T04:00:01.998720
MEAN_MOTION    = 15.75036613
ECCENTRICITY   = .0001733
INCLINATION    = 43.0007
RA_OF_ASC_NODE = 109.4035
ARG_OF_PERICENTER = 270.9968
MEAN_ANOMALY   = 229.3975

EPHEMERIS_TYPE = 0
CLASSIFICATION_TYPE = U
NORAD_CAT_ID   = 66978
ELEMENT_SET_NO = 999
REV_AT_EPOCH   = 334
BSTAR          = .82654E-5
MEAN_MOTION_DOT = .792E-5
MEAN_MOTION_DDOT = 0

CCSDS_OMM_VERS = 2.0
CREATION_DATE  = 
ORIGINATOR     = 

OBJECT_NAME    = STARLINK-36107
OBJECT_ID      = 2025-288W
CENTER_NAME    = EARTH
REF_FRAME      = TEME
TIME_SYSTEM    = UTC
MEAN_ELEMENT_THEORY = SGP/SGP4

EPOCH          = 2025-12-22T04:00:01.998720
MEAN_MOTION    = 15.75048047
ECCENTRICITY   = .0001672
INCLINATION    = 43.0007
RA_OF_ASC_NODE = 109.3991
ARG_OF_PERICENTER = 260.6653
MEAN_ANOMALY   = 241.6590

EPHEMERIS_TYPE = 0
CLASSIFICATION_TYPE = U
NORAD_CAT_ID   = 66979
ELEMENT_SET_NO = 999
REV_AT_EPOCH   = 334
BSTAR          = -.22608E-3
MEAN_MOTION_DOT = -.35075E-3
MEAN_MOTION_DDOT = 0

CCSDS_OMM_VERS = 2.0
CREATION_DATE  = 
ORIGINATOR     = 

OBJECT_NAME    = STARLINK-36086
OBJECT_ID      = 2025-288X
CENTER_NAME    = EARTH
REF_FRAME      = TEME
TIME_SYSTEM    = UTC
MEAN_ELEMENT_THEORY = SGP/SGP4

EPOCH          = 2025-12-22T04:00:01.998720
MEAN_MOTION    = 15.75059434
ECCENTRICITY   = .0001667
INCLINATION    = 43.0007
RA_OF_ASC_NODE = 109.3940
ARG_OF_PERICENTER = 258.8355
MEAN_ANOMALY   = 245.4031

EPHEMERIS_TYPE = 0
CLASSIFICATION_TYPE = U
NORAD_CAT_ID   = 66980
ELEMENT_SET_NO = 999
REV_AT_EPOCH   = 334
BSTAR          = -.37334E-3
MEAN_MOTION_DOT = -.57488E-3
MEAN_MOTION_DDOT = 0

CCSDS_OMM_VERS = 2.0
CREATION_DATE  = 
ORIGINATOR     = 

OBJECT_NAME    = STARLINK-36142
OBJECT_ID      = 2025-288Y
CENTER_NAME    = EARTH
REF_FRAME      = TEME
TIME_SYSTEM    = UTC
MEAN_ELEMENT_THEORY = SGP/SGP4

EPOCH          = 2025-12-22T04:00:01.998720
MEAN_MOTION    = 15.75034660
ECCENTRICITY   = .0001974
INCLINATION    = 43.0007
RA_OF_ASC_NODE = 109.3893
ARG_OF_PERICENTER = 267.6265
MEAN_ANOMALY   = 238.5369

EPHEMERIS_TYPE = 0
CLASSIFICATION_TYPE = U
NORAD_CAT_ID   = 66981
ELEMENT_SET_NO = 999
REV_AT_EPOCH   = 334
BSTAR          = -.94842E-4
MEAN_MOTION_DOT = -.15019E-3
MEAN_MOTION_DDOT = 0

CCSDS_OMM_VERS = 2.0
CREATION_DATE  = 
ORIGINATOR     = 

OBJECT_NAME    = STARLINK-36113
OBJECT_ID      = 2025-288Z
CENTER_NAME    = EARTH
REF_FRAME      = TEME
TIME_SYSTEM    = UTC
MEAN_ELEMENT_THEORY = SGP/SGP4

EPOCH          = 2025-12-22T04:00:01.998720
MEAN_MOTION    = 15.75059590
ECCENTRICITY   = .0001671
INCLINATION    = 43.0007
RA_OF_ASC_NODE = 109.3839
ARG_OF_PERICENTER = 264.0952
MEAN_ANOMALY   = 243.9788

EPHEMERIS_TYPE = 0
CLASSIFICATION_TYPE = U
NORAD_CAT_ID   = 66982
ELEMENT_SET_NO = 999
REV_AT_EPOCH   = 334
BSTAR          = -.37402E-3
MEAN_MOTION_DOT = -.57592E-3
MEAN_MOTION_DDOT = 0

CCSDS_OMM_VERS = 2.0
CREATION_DATE  = 
ORIGINATOR     = 

OBJECT_NAME    = STARLINK-36145
OBJECT_ID      = 2025-288AA
CENTER_NAME    = EARTH
REF_FRAME      = TEME
TIME_SYSTEM    = UTC
MEAN_ELEMENT_THEORY = SGP/SGP4

EPOCH          = 2025-12-22T04:00:01.998720
MEAN_MOTION    = 15.75040751
ECCENTRICITY   = .0001434
INCLINATION    = 43.0008
RA_OF_ASC_NODE = 109.3746
ARG_OF_PERICENTER = 266.0246
MEAN_ANOMALY   = 245.8945

EPHEMERIS_TYPE = 0
CLASSIFICATION_TYPE = U
NORAD_CAT_ID   = 66983
ELEMENT_SET_NO = 999
REV_AT_EPOCH   = 334
BSTAR          = -.21341E-3
MEAN_MOTION_DOT = -.33132E-3
MEAN_MOTION_DDOT = 0

CCSDS_OMM_VERS = 2.0
CREATION_DATE  = 
ORIGINATOR     = 

OBJECT_NAME    = STARLINK-35591
OBJECT_ID      = 2025-288AB
CENTER_NAME    = EARTH
REF_FRAME      = TEME
TIME_SYSTEM    = UTC
MEAN_ELEMENT_THEORY = SGP/SGP4

EPOCH          = 2025-12-22T04:00:01.998720
MEAN_MOTION    = 15.75053649
ECCENTRICITY   = .0001086
INCLINATION    = 43.0009
RA_OF_ASC_NODE = 109.3788
ARG_OF_PERICENTER = 261.0466
MEAN_ANOMALY   = 248.9276

EPHEMERIS_TYPE = 0
CLASSIFICATION_TYPE = U
NORAD_CAT_ID   = 66984
ELEMENT_SET_NO = 999
REV_AT_EPOCH   = 334
BSTAR          = -.14454E-3
MEAN_MOTION_DOT = -.22633E-3
MEAN_MOTION_DDOT = 0

CCSDS_OMM_VERS = 2.0
CREATION_DATE  = 
ORIGINATOR     = 

OBJECT_NAME    = STARLINK-36103
OBJECT_ID      = 2025-288AC
CENTER_NAME    = EARTH
REF_FRAME      = TEME
TIME_SYSTEM    = UTC
MEAN_ELEMENT_THEORY = SGP/SGP4

EPOCH          = 2025-12-22T04:00:01.998720
MEAN_MOTION    = 15.75063347
ECCENTRICITY   = .0001898
INCLINATION    = 43.0007
RA_OF_ASC_NODE = 109.3696
ARG_OF_PERICENTER = 266.9067
MEAN_ANOMALY   = 246.9128

EPHEMERIS_TYPE = 0
CLASSIFICATION_TYPE = U
NORAD_CAT_ID   = 66985
ELEMENT_SET_NO = 999
REV_AT_EPOCH   = 334
BSTAR          = -.34573E-3
MEAN_MOTION_DOT = -.53309E-3
MEAN_MOTION_DDOT = 0

CCSDS_OMM_VERS = 2.0
CREATION_DATE  = 
ORIGINATOR     = 

OBJECT_NAME    = STARLINK-36135
OBJECT_ID      = 2025-288AD
CENTER_NAME    = EARTH
REF_FRAME      = TEME
TIME_SYSTEM    = UTC
MEAN_ELEMENT_THEORY = SGP/SGP4

EPOCH          = 2025-12-22T04:00:01.998720
MEAN_MOTION    = 15.75036132
ECCENTRICITY   = .0001785
INCLINATION    = 43.0007
RA_OF_ASC_NODE = 109.3639
ARG_OF_PERICENTER = 267.4563
MEAN_ANOMALY   = 248.3026

EPHEMERIS_TYPE = 0
CLASSIFICATION_TYPE = U
NORAD_CAT_ID   = 66986
ELEMENT_SET_NO = 999
REV_AT_EPOCH   = 334
BSTAR          = -.18903E-3
MEAN_MOTION_DOT = -.29411E-3
MEAN_MOTION_DDOT = 0

CCSDS_OMM_VERS = 2.0
CREATION_DATE  = 
ORIGINATOR     = 

OBJECT_NAME    = STARLINK-36147
OBJECT_ID      = 2025-288AE
CENTER_NAME    = EARTH
REF_FRAME      = TEME
TIME_SYSTEM    = UTC
MEAN_ELEMENT_THEORY = SGP/SGP4

EPOCH          = 2025-12-22T04:00:01.998720
MEAN_MOTION    = 15.75020810
ECCENTRICITY   = .0001538
INCLINATION    = 43.0008
RA_OF_ASC_NODE = 109.3598
ARG_OF_PERICENTER = 264.2521
MEAN_ANOMALY   = 253.4269

EPHEMERIS_TYPE = 0
CLASSIFICATION_TYPE = U
NORAD_CAT_ID   = 66987
ELEMENT_SET_NO = 999
REV_AT_EPOCH   = 334
BSTAR          = -.64413E-5
MEAN_MOTION_DOT = -.1466E-4
MEAN_MOTION_DDOT = 0

CCSDS_OMM_VERS = 2.0
CREATION_DATE  = 
ORIGINATOR     = 

OBJECT_NAME    = YAOGAN-47
OBJECT_ID      = 2025-289A
CENTER_NAME    = EARTH
REF_FRAME      = TEME
TIME_SYSTEM    = UTC
MEAN_ELEMENT_THEORY = SGP/SGP4

EPOCH          = 2025-12-20T02:21:43.539840
MEAN_MOTION    = 15.23243112
ECCENTRICITY   = .00006467
INCLINATION    = 97.5265
RA_OF_ASC_NODE = 59.2376
ARG_OF_PERICENTER = 91.4531
MEAN_ANOMALY   = 268.6780

EPHEMERIS_TYPE = 0
CLASSIFICATION_TYPE = U
NORAD_CAT_ID   = 66988
ELEMENT_SET_NO = 999
REV_AT_EPOCH   = 166
BSTAR          = .10945697E-3
MEAN_MOTION_DOT = .252E-4
MEAN_MOTION_DDOT = 0

